start=new Date('2023-03-17T00:00:00.000Z').valueOf();
sats=[{"OBJECT_NAME":"STARLINK-4711","APOAPSIS":"540.805","TLE_LINE1":"1 53701U 22107B   23075.53051079  .00004210  00000-0  28238-3 0  9998","TIME_SYSTEM":"UTC","CLASSIFICATION_TYPE":"U","TLE_LINE2":"2 53701  53.2182  93.1287 0001562  80.0502 280.0667 15.08847003 29688","OBJECT_ID":"2022-107B","REV_AT_EPOCH":"2968","BSTAR":"0.00028238000000","SEMIMAJOR_AXIS":"6917.859","PERIAPSIS":"538.643","ECCENTRICITY":"0.00015620","ARG_OF_PERICENTER":"80.0502","REF_FRAME":"TEME","EPHEMERIS_TYPE":"0","MEAN_MOTION":"15.08847003","GP_ID":"228258553","RCS_SIZE":"LARGE","NORAD_CAT_ID":"53701","PERIOD":"95.437","EPOCH":"2023-03-16T12:43:56.132256","FILE":"3862518","CENTER_NAME":"EARTH","MEAN_MOTION_DDOT":"0.0000000000000","MEAN_ELEMENT_THEORY":"SGP4","DECAY_DATE":null,"ELEMENT_SET_NO":"999","MEAN_ANOMALY":"280.0667","LAUNCH_DATE":"2022-09-05","RA_OF_ASC_NODE":"93.1287","OBJECT_TYPE":"PAYLOAD","COUNTRY_CODE":"US","MEAN_MOTION_DOT":"0.00004210","SITE":"AFETR","INCLINATION":"53.2182"},{"BSTAR":"0.00031017000000","REV_AT_EPOCH":"3065","PERIAPSIS":"538.919","SEMIMAJOR_AXIS":"6917.840","TLE_LINE1":"1 53702U 22107C   23075.42336828  .00004654  00000-0  31017-3 0  9996","OBJECT_NAME":"STARLINK-4724","APOAPSIS":"540.491","OBJECT_ID":"2022-107C","TLE_LINE2":"2 53702  53.2178  78.9244 0001136  89.6679 270.4443 15.08853094 30656","CLASSIFICATION_TYPE":"U","TIME_SYSTEM":"UTC","OBJECT_TYPE":"PAYLOAD","RA_OF_ASC_NODE":"78.9244","LAUNCH_DATE":"2022-09-05","DECAY_DATE":null,"MEAN_ANOMALY":"270.4443","ELEMENT_SET_NO":"999","MEAN_ELEMENT_THEORY":"SGP4","CENTER_NAME":"EARTH","MEAN_MOTION_DDOT":"0.0000000000000","INCLINATION":"53.2178","SITE":"AFETR","MEAN_MOTION_DOT":"0.00004654","COUNTRY_CODE":"US","MEAN_MOTION":"15.08853094","ECCENTRICITY":"0.00011360","ARG_OF_PERICENTER":"89.6679","REF_FRAME":"TEME","EPHEMERIS_TYPE":"0","FILE":"3862295","EPOCH":"2023-03-16T10:09:39.019392","PERIOD":"95.437","GP_ID":"228252874","NORAD_CAT_ID":"53702","RCS_SIZE":"LARGE"},{"FILE":"3862592","RCS_SIZE":"LARGE","NORAD_CAT_ID":"53703","GP_ID":"228285327","EPOCH":"2023-03-16T17:52:41.026656","PERIOD":"95.438","EPHEMERIS_TYPE":"0","ECCENTRICITY":"0.00011960","ARG_OF_PERICENTER":"113.7829","REF_FRAME":"TEME","MEAN_MOTION":"15.08838370","SITE":"AFETR","INCLINATION":"53.2160","COUNTRY_CODE":"US","MEAN_MOTION_DOT":"-0.00001351","LAUNCH_DATE":"2022-09-05","RA_OF_ASC_NODE":"92.3366","OBJECT_TYPE":"PAYLOAD","MEAN_MOTION_DDOT":"0.0000000000000","CENTER_NAME":"EARTH","MEAN_ANOMALY":"246.3289","DECAY_DATE":null,"ELEMENT_SET_NO":"999","MEAN_ELEMENT_THEORY":"SGP4","TLE_LINE2":"2 53703  53.2160  92.3366 0001196 113.7829 246.3289 15.08838370 30464","OBJECT_ID":"2022-107D","TIME_SYSTEM":"UTC","CLASSIFICATION_TYPE":"U","TLE_LINE1":"1 53703U 22107D   23075.74491929 -.00001351  00000-0 -66805-4 0  9993","APOAPSIS":"540.578","OBJECT_NAME":"STARLINK-4731","SEMIMAJOR_AXIS":"6917.885","PERIAPSIS":"538.923","BSTAR":"-0.00006680500000","REV_AT_EPOCH":"3046"},{"MEAN_MOTION":"15.08851327","ECCENTRICITY":"0.00012840","REF_FRAME":"TEME","ARG_OF_PERICENTER":"85.8707","EPHEMERIS_TYPE":"0","PERIOD":"95.437","EPOCH":"2023-03-16T12:38:45.311712","GP_ID":"228258558","RCS_SIZE":"LARGE","NORAD_CAT_ID":"53704","FILE":"3862519","MEAN_ANOMALY":"274.2432","DECAY_DATE":null,"MEAN_ELEMENT_THEORY":"SGP4","ELEMENT_SET_NO":"999","CENTER_NAME":"EARTH","MEAN_MOTION_DDOT":"0.0000000000000","OBJECT_TYPE":"PAYLOAD","LAUNCH_DATE":"2022-09-05","RA_OF_ASC_NODE":"93.8142","COUNTRY_CODE":"US","MEAN_MOTION_DOT":"0.00012027","INCLINATION":"53.2185","SITE":"AFETR","OBJECT_NAME":"STARLINK-4714","APOAPSIS":"540.599","TLE_LINE1":"1 53704U 22107E   23075.52691333  .00012027  00000-0  77220-3 0  9993","CLASSIFICATION_TYPE":"U","TIME_SYSTEM":"UTC","OBJECT_ID":"2022-107E","TLE_LINE2":"2 53704  53.2185  93.8142 0001284  85.8707 274.2432 15.08851327 29670","REV_AT_EPOCH":"2967","BSTAR":"0.00077220000000","PERIAPSIS":"538.823","SEMIMAJOR_AXIS":"6917.846"},{"PERIAPSIS":"538.761","SEMIMAJOR_AXIS":"6917.854","BSTAR":"0.00047049000000","REV_AT_EPOCH":"3041","OBJECT_ID":"2022-107F","TLE_LINE2":"2 53705  53.2176  94.0875 0001385 112.4536 247.6603 15.08848543 30410","TIME_SYSTEM":"UTC","CLASSIFICATION_TYPE":"U","TLE_LINE1":"1 53705U 22107F   23075.45698614  .00007210  00000-0  47049-3 0  9999","APOAPSIS":"540.677","OBJECT_NAME":"STARLINK-4717","INCLINATION":"53.2176","SITE":"AFETR","MEAN_MOTION_DOT":"0.00007210","COUNTRY_CODE":"US","OBJECT_TYPE":"PAYLOAD","RA_OF_ASC_NODE":"94.0875","LAUNCH_DATE":"2022-09-05","DECAY_DATE":null,"MEAN_ANOMALY":"247.6603","MEAN_ELEMENT_THEORY":"SGP4","ELEMENT_SET_NO":"999","MEAN_MOTION_DDOT":"0.0000000000000","CENTER_NAME":"EARTH","FILE":"3862295","EPOCH":"2023-03-16T10:58:03.602496","PERIOD":"95.437","RCS_SIZE":"LARGE","NORAD_CAT_ID":"53705","GP_ID":"228251622","MEAN_MOTION":"15.08848543","EPHEMERIS_TYPE":"0","REF_FRAME":"TEME","ECCENTRICITY":"0.00013850","ARG_OF_PERICENTER":"112.4536"},{"MEAN_MOTION_DOT":"-0.00003255","COUNTRY_CODE":"US","INCLINATION":"53.2184","SITE":"AFETR","DECAY_DATE":null,"MEAN_ELEMENT_THEORY":"SGP4","MEAN_ANOMALY":"260.0175","ELEMENT_SET_NO":"999","MEAN_MOTION_DDOT":"0.0000000000000","CENTER_NAME":"EARTH","OBJECT_TYPE":"PAYLOAD","LAUNCH_DATE":"2022-09-05","RA_OF_ASC_NODE":"92.5355","PERIOD":"95.438","EPOCH":"2023-03-16T18:40:27.805440","RCS_SIZE":"LARGE","NORAD_CAT_ID":"53706","GP_ID":"228286579","FILE":"3862592","MEAN_MOTION":"15.08830072","EPHEMERIS_TYPE":"0","ARG_OF_PERICENTER":"100.1018","ECCENTRICITY":"0.00017810","REF_FRAME":"TEME","PERIAPSIS":"538.544","SEMIMAJOR_AXIS":"6917.911","REV_AT_EPOCH":"3046","BSTAR":"-0.00018657000000","CLASSIFICATION_TYPE":"U","TIME_SYSTEM":"UTC","OBJECT_ID":"2022-107G","TLE_LINE2":"2 53706  53.2184  92.5355 0001781 100.1018 260.0175 15.08830072 30461","APOAPSIS":"541.008","OBJECT_NAME":"STARLINK-4716","TLE_LINE1":"1 53706U 22107G   23075.77809960 -.00003255  00000-0 -18657-3 0  9993"},{"CLASSIFICATION_TYPE":"U","TIME_SYSTEM":"UTC","OBJECT_ID":"2022-107H","TLE_LINE2":"2 53707  53.2170  77.8001 0001244 103.4494 256.6637 15.08838443 30665","APOAPSIS":"540.611","OBJECT_NAME":"STARLINK-4667","TLE_LINE1":"1 53707U 22107H   23075.69939237  .00000122  00000-0  25738-4 0  9993","PERIAPSIS":"538.890","SEMIMAJOR_AXIS":"6917.885","REV_AT_EPOCH":"3066","BSTAR":"0.00002573800000","PERIOD":"95.438","EPOCH":"2023-03-16T16:47:07.500768","RCS_SIZE":"LARGE","NORAD_CAT_ID":"53707","GP_ID":"228284828","FILE":"3862592","MEAN_MOTION":"15.08838443","EPHEMERIS_TYPE":"0","REF_FRAME":"TEME","ARG_OF_PERICENTER":"103.4494","ECCENTRICITY":"0.00012440","MEAN_MOTION_DOT":"0.00000122","COUNTRY_CODE":"US","INCLINATION":"53.2170","SITE":"AFETR","MEAN_ANOMALY":"256.6637","DECAY_DATE":null,"MEAN_ELEMENT_THEORY":"SGP4","ELEMENT_SET_NO":"999","MEAN_MOTION_DDOT":"0.0000000000000","CENTER_NAME":"EARTH","OBJECT_TYPE":"PAYLOAD","LAUNCH_DATE":"2022-09-05","RA_OF_ASC_NODE":"77.8001"},{"FILE":"3862592","RCS_SIZE":"LARGE","NORAD_CAT_ID":"53708","GP_ID":"228285078","PERIOD":"95.437","EPOCH":"2023-03-16T17:30:56.731392","EPHEMERIS_TYPE":"0","REF_FRAME":"TEME","ARG_OF_PERICENTER":"72.7892","ECCENTRICITY":"0.00007680","MEAN_MOTION":"15.08840876","SITE":"AFETR","INCLINATION":"53.2182","MEAN_MOTION_DOT":"0.00006596","COUNTRY_CODE":"US","LAUNCH_DATE":"2022-09-05","RA_OF_ASC_NODE":"77.9889","OBJECT_TYPE":"PAYLOAD","MEAN_MOTION_DDOT":"0.0000000000000","CENTER_NAME":"EARTH","MEAN_ELEMENT_THEORY":"SGP4","DECAY_DATE":null,"MEAN_ANOMALY":"287.3185","ELEMENT_SET_NO":"999","TLE_LINE2":"2 53708  53.2182  77.9889 0000768  72.7892 287.3185 15.08840876 30666","OBJECT_ID":"2022-107J","CLASSIFICATION_TYPE":"U","TIME_SYSTEM":"UTC","TLE_LINE1":"1 53708U 22107J   23075.72982328  .00006596  00000-0  43211-3 0  9993","APOAPSIS":"540.274","OBJECT_NAME":"STARLINK-4694","SEMIMAJOR_AXIS":"6917.878","PERIAPSIS":"539.211","BSTAR":"0.00043211000000","REV_AT_EPOCH":"3066"},{"TLE_LINE1":"1 53709U 22107K   23076.00001157  .00065400  00000-0  40925-2 0  9995","APOAPSIS":"540.857","OBJECT_NAME":"STARLINK-4685","OBJECT_ID":"2022-107K","TLE_LINE2":"2 53709  53.2171  96.1311 0001486 109.4170 234.7034 15.08812551 29681","CLASSIFICATION_TYPE":"U","TIME_SYSTEM":"UTC","BSTAR":"0.00409250000000","REV_AT_EPOCH":"2968","PERIAPSIS":"538.801","SEMIMAJOR_AXIS":"6917.964","MEAN_MOTION":"15.08812551","EPHEMERIS_TYPE":"0","ECCENTRICITY":"0.00014860","ARG_OF_PERICENTER":"109.4170","REF_FRAME":"TEME","FILE":"3862523","PERIOD":"95.439","EPOCH":"2023-03-17T00:00:00.999648","RCS_SIZE":"LARGE","NORAD_CAT_ID":"53709","GP_ID":"228258572","OBJECT_TYPE":"PAYLOAD","RA_OF_ASC_NODE":"96.1311","LAUNCH_DATE":"2022-09-05","DECAY_DATE":null,"MEAN_ELEMENT_THEORY":"SGP4","ELEMENT_SET_NO":"999","MEAN_ANOMALY":"234.7034","MEAN_MOTION_DDOT":"0.0000000000000","CENTER_NAME":"EARTH","INCLINATION":"53.2171","SITE":"AFETR","MEAN_MOTION_DOT":"0.00065400","COUNTRY_CODE":"US"},{"PERIAPSIS":"539.145","SEMIMAJOR_AXIS":"6917.909","REV_AT_EPOCH":"3008","BSTAR":"0.00034641000000","CLASSIFICATION_TYPE":"U","TIME_SYSTEM":"UTC","OBJECT_ID":"2022-107M","TLE_LINE2":"2 53711  53.2180  97.3702 0000909 100.2984 259.8111 15.08830691 30087","APOAPSIS":"540.403","OBJECT_NAME":"STARLINK-4627","TLE_LINE1":"1 53711U 22107M   23075.74903842  .00005228  00000-0  34641-3 0  9991","MEAN_MOTION_DOT":"0.00005228","COUNTRY_CODE":"US","INCLINATION":"53.2180","SITE":"AFETR","MEAN_ANOMALY":"259.8111","DECAY_DATE":null,"MEAN_ELEMENT_THEORY":"SGP4","ELEMENT_SET_NO":"999","MEAN_MOTION_DDOT":"0.0000000000000","CENTER_NAME":"EARTH","OBJECT_TYPE":"PAYLOAD","LAUNCH_DATE":"2022-09-05","RA_OF_ASC_NODE":"97.3702","EPOCH":"2023-03-16T17:58:36.919488","PERIOD":"95.438","NORAD_CAT_ID":"53711","RCS_SIZE":"LARGE","GP_ID":"228286080","FILE":"3862592","MEAN_MOTION":"15.08830691","EPHEMERIS_TYPE":"0","ARG_OF_PERICENTER":"100.2984","REF_FRAME":"TEME","ECCENTRICITY":"0.00009090"}];
